[Satellite]
VERSION=1.1
NAME=IRIDIUM 8 [+]
NICKNAME=IRIDIUM 8 [+]
TLE1=1 24792U 97020A   17185.95779596  .00000087  00000-0  23882-4 0  9993
TLE2=2 24792  86.3967 311.2536 0002320  93.7075 266.4386 14.34213714 55515
